[{"OBJECT_NAME":"CUBESX-HSE 3 (RS42S)","OBJECT_ID":"2023-091N","EPOCH":"2026-03-09T22:57:25.321248","MEAN_MOTION":15.286147,"ECCENTRICITY":0.00127191,"INCLINATION":97.5203,"RA_OF_ASC_NODE":133.4295,"ARG_OF_PERICENTER":86.5376,"MEAN_ANOMALY":273.7318,"EPHEMERIS_TYPE":0,"CLASSIFICATION_TYPE":"U","NORAD_CAT_ID":57178,"ELEMENT_SET_NO":999,"REV_AT_EPOCH":14925,"BSTAR":0.00059055694,"MEAN_MOTION_DOT":0.00016417,"MEAN_MOTION_DDOT":0},{"OBJECT_NAME":"STARLINK-33553","OBJECT_ID":"2024-220W","EPOCH":"2026-03-09T10:37:57.254592","MEAN_MOTION":15.27581447,"ECCENTRICITY":0.00014121,"INCLINATION":43.0012,"RA_OF_ASC_NODE":206.9212,"ARG_OF_PERICENTER":248.9109,"MEAN_ANOMALY":111.1592,"EPHEMERIS_TYPE":0,"CLASSIFICATION_TYPE":"U","NORAD_CAT_ID":62108,"ELEMENT_SET_NO":999,"REV_AT_EPOCH":7315,"BSTAR":0.0013004672,"MEAN_MOTION_DOT":0.00035699,"MEAN_MOTION_DDOT":0}]
